{"type": "FeatureCollection", "features": [{"type": "Feature", "properties": {"name": "서검도 서안", "level": 0.897, "length_km": 0.53}, "geometry": {"type": "LineString", "coordinates": [[126.22242, 37.71786], [126.22161, 37.71864], [126.21994, 37.71867], [126.21867, 37.71989], [126.21867, 37.71989], [126.21872, 37.72075]]}}, {"type": "Feature", "properties": {"name": "서검도 서안", "level": 0.897, "length_km": 0.41}, "geometry": {"type": "LineString", "coordinates": [[126.21997, 37.72197], [126.22078, 37.722], [126.22158, 37.72283], [126.22411, 37.72283]]}}]}