{"type": "FeatureCollection", "features": [{"type": "Feature", "properties": {"name": "교동도 서안", "level": 0.791, "length_km": 1.0}, "geometry": {"type": "LineString", "coordinates": [[126.21619, 37.77825], [126.21616, 37.77992], [126.21697, 37.78072], [126.217, 37.78159], [126.21741, 37.782], [126.21822, 37.78197], [126.21864, 37.78239], [126.2187, 37.78325], [126.21909, 37.78364], [126.21989, 37.78367], [126.22072, 37.78447], [126.22158, 37.7845]]}}, {"type": "Feature", "properties": {"name": "교동도 서안", "level": 0.791, "length_km": 0.74}, "geometry": {"type": "LineString", "coordinates": [[126.22283, 37.78575], [126.22281, 37.78825], [126.22364, 37.78908], [126.22369, 37.78989], [126.22242, 37.79117], [126.22156, 37.79114]]}}, {"type": "Feature", "properties": {"name": "교동도 서안", "level": 0.791, "length_km": 1.01}, "geometry": {"type": "LineString", "coordinates": [[126.2208, 37.79198], [126.21994, 37.79202], [126.2195, 37.79242], [126.2195, 37.79572], [126.22033, 37.79662], [126.22036, 37.79822], [126.2208, 37.79867], [126.22242, 37.79867]]}}, {"type": "Feature", "properties": {"name": "교동도 북서안", "level": 0.715, "length_km": 0.93}, "geometry": {"type": "LineString", "coordinates": [[126.22327, 37.79947], [126.22405, 37.7995], [126.2245, 37.79991], [126.22453, 37.80241], [126.22369, 37.80328], [126.22366, 37.80573], [126.22408, 37.80614], [126.22489, 37.80617]]}}, {"type": "Feature", "properties": {"name": "교동도 북서안", "level": 0.715, "length_km": 0.85}, "geometry": {"type": "LineString", "coordinates": [[126.22655, 37.8078], [126.22742, 37.8078], [126.22908, 37.80952], [126.23075, 37.8095], [126.23161, 37.8103], [126.23244, 37.81033], [126.23328, 37.81117], [126.23411, 37.81117]]}}, {"type": "Feature", "properties": {"name": "교동도 북서안", "level": 0.715, "length_km": 0.83}, "geometry": {"type": "LineString", "coordinates": [[126.23617, 37.81322], [126.23619, 37.81409], [126.23703, 37.81492], [126.237, 37.81578], [126.23742, 37.81616], [126.23828, 37.81614], [126.23911, 37.81703], [126.24069, 37.817], [126.24161, 37.81616]]}}, {"type": "Feature", "properties": {"name": "교동도 북안", "level": 0.619, "length_km": 1.07}, "geometry": {"type": "LineString", "coordinates": [[126.25661, 37.81616], [126.25745, 37.81534], [126.25825, 37.81614], [126.25992, 37.81614], [126.26075, 37.817], [126.26167, 37.81697], [126.26247, 37.81778], [126.26405, 37.81783], [126.26489, 37.81863], [126.26578, 37.81781]]}}, {"type": "Feature", "properties": {"name": "교동도 북동안", "level": 0.55, "length_km": 0.75}, "geometry": {"type": "LineString", "coordinates": [[126.31411, 37.80363], [126.31494, 37.80453], [126.31905, 37.8045], [126.31989, 37.80533], [126.32156, 37.80531]]}}]}