{"type": "FeatureCollection", "features": [{"type": "Feature", "properties": {"name": "소래·시흥 연안", "level": 0.113, "length_km": 0.41}, "geometry": {"type": "LineString", "coordinates": [[126.75958, 37.31911], [126.7587, 37.31995], [126.75872, 37.32076], [126.75831, 37.32114], [126.75667, 37.32117]]}}, {"type": "Feature", "properties": {"name": "소래·시흥 연안", "level": 0.206, "length_km": 5.8}, "geometry": {"type": "LineString", "coordinates": [[126.69164, 37.33372], [126.69119, 37.33411], [126.69119, 37.33664], [126.69036, 37.33747], [126.69039, 37.33908], [126.69122, 37.33994], [126.69119, 37.34075], [126.69202, 37.34164], [126.69205, 37.34328], [126.69289, 37.34412], [126.69283, 37.34575], [126.69408, 37.34706], [126.6992, 37.34703], [126.69953, 37.34744], [126.69955, 37.34908], [126.70247, 37.35201], [126.70411, 37.35205], [126.70578, 37.35367], [126.70664, 37.3537], [126.7075, 37.35452], [126.70827, 37.35452], [126.71078, 37.35697], [126.7125, 37.35699], [126.71336, 37.35783], [126.71586, 37.35783], [126.71667, 37.35869], [126.71747, 37.35867], [126.71833, 37.35953], [126.71909, 37.35956], [126.71992, 37.36031], [126.7208, 37.36034], [126.72161, 37.36119], [126.72247, 37.36117], [126.72414, 37.36283], [126.72495, 37.36281], [126.72661, 37.3645], [126.72747, 37.3645], [126.72831, 37.36533], [126.72916, 37.36536]]}}, {"type": "Feature", "properties": {"name": "소래·시흥 연안", "level": 0.266, "length_km": 5.63}, "geometry": {"type": "LineString", "coordinates": [[126.73083, 37.36697], [126.73164, 37.367], [126.73248, 37.36786], [126.73497, 37.36781], [126.73664, 37.3695], [126.73753, 37.36953], [126.73959, 37.37161], [126.7395, 37.37408], [126.74036, 37.37494], [126.74039, 37.37575], [126.74122, 37.37664], [126.74122, 37.37742], [126.74286, 37.37911], [126.74292, 37.37991], [126.74375, 37.38078], [126.74372, 37.38158], [126.74455, 37.38242], [126.74453, 37.38577], [126.74372, 37.38664], [126.74375, 37.38822], [126.74286, 37.38908], [126.74292, 37.38994], [126.74203, 37.39078], [126.742, 37.39159], [126.74125, 37.39242], [126.74122, 37.39328], [126.74, 37.3945], [126.73911, 37.3945], [126.7383, 37.39533], [126.73503, 37.39533], [126.73417, 37.39453], [126.73244, 37.39447], [126.73078, 37.39286], [126.72997, 37.39284], [126.72831, 37.39119], [126.72745, 37.39119], [126.72461, 37.38824]]}}, {"type": "Feature", "properties": {"name": "소래·시흥 연안", "level": 0.155, "length_km": 5.67}, "geometry": {"type": "LineString", "coordinates": [[126.72456, 37.38747], [126.72372, 37.38658], [126.72369, 37.38492], [126.72327, 37.38453], [126.72242, 37.3845], [126.7208, 37.3828], [126.71917, 37.38283], [126.71833, 37.38203], [126.71497, 37.382], [126.71414, 37.38286], [126.7125, 37.38283], [126.71161, 37.38367], [126.70911, 37.38367], [126.70827, 37.38453], [126.70414, 37.3845], [126.70331, 37.38533], [126.70245, 37.38531], [126.70164, 37.38617], [126.7, 37.38619], [126.69828, 37.3878], [126.6975, 37.38786], [126.69661, 37.38869], [126.69583, 37.38867], [126.69495, 37.38953], [126.69419, 37.3895], [126.69373, 37.38994], [126.69375, 37.39075], [126.69703, 37.39408], [126.69706, 37.39489], [126.69875, 37.39658], [126.69872, 37.39745], [126.69917, 37.39783], [126.7, 37.39786], [126.70042, 37.39828], [126.70039, 37.39908], [126.70123, 37.39995], [126.70119, 37.40075], [126.70203, 37.40161], [126.70078, 37.40286], [126.69661, 37.40283]]}}, {"type": "Feature", "properties": {"name": "소래·시흥 연안", "level": 0.178, "length_km": 4.38}, "geometry": {"type": "LineString", "coordinates": [[126.69, 37.39616], [126.68914, 37.39622], [126.68747, 37.39453], [126.68661, 37.3945], [126.68578, 37.39369], [126.685, 37.39366], [126.68414, 37.39286], [126.6825, 37.39284], [126.68166, 37.392], [126.68081, 37.392], [126.67997, 37.39117], [126.67833, 37.39119], [126.6775, 37.39034], [126.67664, 37.39037], [126.67578, 37.3895], [126.67164, 37.38953], [126.67081, 37.39037], [126.66994, 37.39034], [126.66744, 37.39286], [126.66666, 37.39286], [126.66495, 37.39455], [126.66331, 37.3945], [126.66045, 37.39742], [126.66036, 37.39908], [126.65955, 37.39992], [126.65955, 37.40158], [126.65911, 37.40202], [126.65833, 37.40202], [126.65789, 37.40242], [126.65786, 37.40327], [126.65708, 37.40405], [126.65706, 37.40492]]}}, {"type": "Feature", "properties": {"name": "송도", "level": 0.294, "length_km": 5.72}, "geometry": {"type": "LineString", "coordinates": [[126.6525, 37.40953], [126.65164, 37.4095], [126.65086, 37.41033], [126.64911, 37.41036], [126.64703, 37.41245], [126.64708, 37.41325], [126.64378, 37.41661], [126.64375, 37.41742], [126.64283, 37.41825], [126.64291, 37.42242], [126.63625, 37.42911], [126.63622, 37.42992], [126.63533, 37.43076], [126.63533, 37.43327], [126.6345, 37.43411], [126.63456, 37.43492], [126.63411, 37.43536], [126.63325, 37.43533], [126.63245, 37.4362], [126.62991, 37.43614], [126.62833, 37.4345], [126.62747, 37.43447], [126.62583, 37.43283], [126.62414, 37.43286], [126.62325, 37.43369], [126.62247, 37.43369], [126.62164, 37.43452], [126.6208, 37.43452], [126.61997, 37.43536], [126.61911, 37.43533], [126.61823, 37.4362], [126.61747, 37.43617], [126.61661, 37.437], [126.615, 37.43703]]}}, {"type": "Feature", "properties": {"name": "인천 북항·연안부두", "level": 0.379, "length_km": 5.64}, "geometry": {"type": "LineString", "coordinates": [[126.61333, 37.43867], [126.61161, 37.43869], [126.61081, 37.43953], [126.60911, 37.4395], [126.60789, 37.44078], [126.60789, 37.44158], [126.60995, 37.4437], [126.6125, 37.44366], [126.61328, 37.44283], [126.61372, 37.44325], [126.61367, 37.44411], [126.6145, 37.44492], [126.6133, 37.44622], [126.61244, 37.4462], [126.61203, 37.44658], [126.61283, 37.44742], [126.61289, 37.44827], [126.61375, 37.44908], [126.61372, 37.44994], [126.61452, 37.45074], [126.6145, 37.45161], [126.61406, 37.452], [126.61253, 37.45203], [126.61205, 37.45155], [126.61203, 37.45074], [126.61119, 37.44994], [126.61125, 37.44908], [126.60328, 37.44119], [126.59998, 37.44119], [126.59911, 37.44203], [126.59744, 37.442], [126.59664, 37.44283], [126.59497, 37.44281], [126.59409, 37.44363], [126.59245, 37.44366], [126.59161, 37.44453], [126.58997, 37.44453], [126.58953, 37.44495]]}}, {"type": "Feature", "properties": {"name": "인천 북항·연안부두", "level": 0.336, "length_km": 5.48}, "geometry": {"type": "LineString", "coordinates": [[126.58953, 37.44905], [126.58994, 37.44952], [126.59161, 37.4495], [126.59245, 37.4503], [126.59409, 37.45033], [126.59492, 37.45117], [126.59744, 37.45117], [126.59869, 37.45244], [126.59789, 37.45328], [126.59789, 37.45739], [126.59744, 37.45786], [126.5925, 37.45786], [126.59209, 37.45825], [126.59203, 37.46078], [126.59333, 37.46201], [126.59744, 37.46203], [126.59827, 37.46286], [126.59908, 37.46281], [126.60033, 37.46408], [126.60042, 37.46661], [126.59661, 37.47031], [126.5958, 37.47036], [126.59539, 37.47075], [126.59536, 37.47161], [126.59619, 37.47241], [126.59619, 37.47408], [126.60206, 37.47992]]}}, {"type": "Feature", "properties": {"name": "인천 서구 청라·경인항", "level": 0.179, "length_km": 5.49}, "geometry": {"type": "LineString", "coordinates": [[126.62414, 37.57617], [126.62328, 37.57614], [126.62241, 37.57533], [126.62078, 37.57536], [126.62039, 37.57574], [126.62039, 37.57825], [126.6208, 37.57867], [126.62161, 37.57869], [126.62286, 37.57992], [126.62289, 37.58158], [126.622, 37.58241], [126.62211, 37.58408], [126.6208, 37.5853], [126.61578, 37.5853], [126.61452, 37.58656], [126.6145, 37.58742], [126.61286, 37.58908], [126.61289, 37.58994], [126.61164, 37.59119], [126.60911, 37.59114], [126.60744, 37.5895], [126.60661, 37.58948], [126.60325, 37.58614], [126.60245, 37.58614], [126.60203, 37.58578], [126.60286, 37.58495], [126.60292, 37.58322], [126.60169, 37.582], [126.59661, 37.582], [126.5958, 37.58281], [126.59494, 37.58283], [126.59458, 37.58322], [126.5945, 37.58495], [126.5937, 37.58578]]}}, {"type": "Feature", "properties": {"name": "인천 서구 청라·경인항", "level": 0.187, "length_km": 5.62}, "geometry": {"type": "LineString", "coordinates": [[126.5937, 37.58825], [126.59286, 37.58908], [126.59289, 37.59319], [126.59209, 37.59406], [126.59203, 37.59492], [126.59122, 37.59575], [126.59122, 37.59741], [126.59033, 37.59825], [126.59039, 37.59911], [126.58914, 37.60033], [126.58747, 37.60031], [126.58667, 37.60114], [126.58492, 37.60117], [126.58411, 37.60201], [126.58334, 37.60201], [126.57917, 37.60614], [126.57831, 37.60611], [126.57747, 37.60697], [126.57664, 37.60699], [126.57408, 37.60947], [126.57328, 37.6095], [126.57283, 37.60992], [126.57291, 37.61575], [126.57455, 37.61739], [126.57453, 37.61826], [126.57619, 37.61992], [126.57539, 37.62077], [126.57539, 37.62158], [126.57497, 37.62202], [126.56828, 37.622], [126.56744, 37.62119]]}}, {"type": "Feature", "properties": {"name": "김포 대명항·초지", "level": 0.133, "length_km": 3.2}, "geometry": {"type": "LineString", "coordinates": [[126.55036, 37.62906], [126.55033, 37.62991], [126.5495, 37.63078], [126.54947, 37.63156], [126.54875, 37.63242], [126.54867, 37.63406], [126.54697, 37.63575], [126.547, 37.63655], [126.54491, 37.63869], [126.54328, 37.63864], [126.54244, 37.6395], [126.54081, 37.6395], [126.53783, 37.64242], [126.53783, 37.64408], [126.53619, 37.64578], [126.53622, 37.64742], [126.53533, 37.64828], [126.53531, 37.64906], [126.53367, 37.65075], [126.53369, 37.65155]]}}, {"type": "Feature", "properties": {"name": "김포 대명항·초지", "level": 0.141, "length_km": 3.16}, "geometry": {"type": "LineString", "coordinates": [[126.53281, 37.65239], [126.53286, 37.65578], [126.5333, 37.65617], [126.535, 37.65617], [126.53577, 37.65703], [126.53661, 37.657], [126.53739, 37.65781], [126.53992, 37.65781], [126.542, 37.65991], [126.54203, 37.66078], [126.54292, 37.66158], [126.54283, 37.66238], [126.54242, 37.66283], [126.54164, 37.66281], [126.53989, 37.66451], [126.53911, 37.66447], [126.53867, 37.66495], [126.53872, 37.66739], [126.53783, 37.66822], [126.53792, 37.66908], [126.53741, 37.66947], [126.53655, 37.66947], [126.53492, 37.67114], [126.53406, 37.67114]]}}, {"type": "Feature", "properties": {"name": "강화 동안(염하수로)", "level": 0.164, "length_km": 5.54}, "geometry": {"type": "LineString", "coordinates": [[126.53367, 37.68994], [126.53283, 37.69072], [126.53289, 37.69411], [126.53197, 37.69489], [126.532, 37.69661], [126.5312, 37.69745], [126.5312, 37.70155], [126.53036, 37.70242], [126.53039, 37.70406], [126.52578, 37.70866], [126.52489, 37.70863], [126.52453, 37.70903], [126.52458, 37.70988], [126.52372, 37.71075], [126.52364, 37.71158], [126.52283, 37.71245], [126.52283, 37.72325], [126.5237, 37.72408], [126.52372, 37.72572], [126.52453, 37.72655], [126.52453, 37.72825], [126.52539, 37.72908], [126.52539, 37.73075], [126.52622, 37.73155], [126.52619, 37.73242], [126.52703, 37.73325], [126.527, 37.73402], [126.52786, 37.73492]]}}, {"type": "Feature", "properties": {"name": "강화 동안(염하수로)", "level": 0.249, "length_km": 5.64}, "geometry": {"type": "LineString", "coordinates": [[126.52786, 37.73659], [126.52869, 37.73739], [126.52866, 37.73825], [126.53033, 37.73988], [126.53036, 37.74155], [126.5312, 37.74236], [126.53122, 37.74408], [126.53039, 37.74492], [126.53036, 37.74992], [126.52783, 37.75242], [126.52789, 37.75322], [126.52372, 37.75745], [126.52372, 37.75822], [126.52286, 37.75908], [126.52292, 37.75986], [126.52031, 37.76239], [126.52033, 37.76578], [126.52325, 37.76864], [126.52411, 37.76866], [126.52497, 37.76947], [126.52575, 37.7695], [126.52658, 37.77031], [126.52742, 37.77033], [126.52822, 37.77113], [126.53075, 37.77113], [126.53159, 37.77203], [126.53577, 37.772], [126.53661, 37.7728], [126.53828, 37.77283]]}}, {"type": "Feature", "properties": {"name": "김포 서안(한강하구)", "level": 0.365, "length_km": 5.58}, "geometry": {"type": "LineString", "coordinates": [[126.53919, 37.772], [126.54661, 37.77197], [126.54739, 37.77113], [126.55078, 37.77116], [126.55161, 37.77031], [126.55328, 37.77031], [126.55417, 37.76944], [126.55661, 37.7695], [126.55744, 37.76866], [126.55908, 37.76864], [126.56084, 37.76697], [126.56158, 37.76697], [126.56206, 37.76659], [126.562, 37.76572], [126.56281, 37.76489], [126.56284, 37.76408], [126.56367, 37.76324], [126.56369, 37.76239], [126.56453, 37.76155], [126.56453, 37.75989], [126.56531, 37.75903], [126.56533, 37.75826], [126.56741, 37.75616], [126.56828, 37.75613], [126.56911, 37.75533], [126.57078, 37.75533], [126.57159, 37.75447], [126.58327, 37.7545], [126.58411, 37.75531], [126.58661, 37.75531], [126.58747, 37.75616]]}}, {"type": "Feature", "properties": {"name": "김포 서안(한강하구)", "level": 0.794, "length_km": 5.04}, "geometry": {"type": "LineString", "coordinates": [[126.57825, 37.77113], [126.57745, 37.772], [126.5733, 37.77203], [126.57291, 37.77242], [126.57289, 37.77322], [126.57203, 37.77406], [126.572, 37.77578], [126.57122, 37.77655], [126.57117, 37.77822], [126.57081, 37.77867], [126.56995, 37.77864], [126.56619, 37.78242], [126.56617, 37.78328], [126.56536, 37.78406], [126.56539, 37.78578], [126.56247, 37.78861], [126.55914, 37.78861], [126.55744, 37.79031], [126.55658, 37.79033], [126.55497, 37.79195], [126.55414, 37.792], [126.55241, 37.79361], [126.55164, 37.79367], [126.5508, 37.79445], [126.54994, 37.79449], [126.54908, 37.79533], [126.54747, 37.79536], [126.54491, 37.79781], [126.54414, 37.79786], [126.54242, 37.79947]]}}, {"type": "Feature", "properties": {"name": "강화 북안(조강 연안)", "level": 0.339, "length_km": 4.78}, "geometry": {"type": "LineString", "coordinates": [[126.54156, 37.79953], [126.54081, 37.80031], [126.53986, 37.80033], [126.53911, 37.80119], [126.53408, 37.80114], [126.53328, 37.80197], [126.53159, 37.80194], [126.52905, 37.80447], [126.52827, 37.8045], [126.52664, 37.80614], [126.52575, 37.80617], [126.52497, 37.80695], [126.52322, 37.80698], [126.52247, 37.8078], [126.51828, 37.80783], [126.51664, 37.80947], [126.51578, 37.8095], [126.51489, 37.81028], [126.51328, 37.8103], [126.51158, 37.812], [126.51072, 37.81197], [126.50906, 37.81367], [126.50828, 37.81364], [126.50667, 37.81531], [126.50578, 37.81531], [126.50406, 37.81697], [126.50158, 37.817], [126.50081, 37.81783], [126.49992, 37.81781], [126.49908, 37.81863]]}}, {"type": "Feature", "properties": {"name": "강화 북안(조강 연안)", "level": 0.42, "length_km": 4.98}, "geometry": {"type": "LineString", "coordinates": [[126.49656, 37.81866], [126.49494, 37.82033], [126.49161, 37.82033], [126.49075, 37.81944], [126.48822, 37.8195], [126.48742, 37.82033], [126.48664, 37.82033], [126.48578, 37.81944], [126.47994, 37.8195], [126.47914, 37.81863], [126.47581, 37.81861], [126.47489, 37.81944], [126.46992, 37.81944], [126.46909, 37.8203], [126.46822, 37.82033], [126.46786, 37.82072], [126.46783, 37.82325], [126.4687, 37.82405], [126.4687, 37.82572], [126.4678, 37.82655], [126.46789, 37.82822], [126.46864, 37.82906], [126.46872, 37.83575], [126.4678, 37.83658], [126.46783, 37.83825]]}}, {"type": "Feature", "properties": {"name": "강화 북안(조강 연안)", "level": 0.325, "length_km": 4.58}, "geometry": {"type": "LineString", "coordinates": [[126.46664, 37.83948], [126.46494, 37.8395], [126.46408, 37.84033], [126.46322, 37.8403], [126.46247, 37.84117], [126.46161, 37.84114], [126.45989, 37.8428], [126.45908, 37.8428], [126.45827, 37.84364], [126.45742, 37.84361], [126.45703, 37.84409], [126.457, 37.84492], [126.45658, 37.84531], [126.45575, 37.84531], [126.45539, 37.84575], [126.45536, 37.84656], [126.45453, 37.84739], [126.4545, 37.84825], [126.45409, 37.84864], [126.45322, 37.84783], [126.44989, 37.84781], [126.44908, 37.84864], [126.44822, 37.84869], [126.44744, 37.84947], [126.44495, 37.84947], [126.44411, 37.85031], [126.44328, 37.85031], [126.44241, 37.85114], [126.44156, 37.85117], [126.44072, 37.85194], [126.43908, 37.85197], [126.43825, 37.85281], [126.43739, 37.85281], [126.43655, 37.85364], [126.43578, 37.85361], [126.43494, 37.85448], [126.43156, 37.8545], [126.43081, 37.85533], [126.42828, 37.85528], [126.42747, 37.85448]]}}, {"type": "Feature", "properties": {"name": "북한 개풍 연안(한강하구 북안)", "level": 0.379, "length_km": 4.79}, "geometry": {"type": "LineString", "coordinates": [[126.42325, 37.8545], [126.42289, 37.85489], [126.42364, 37.85575], [126.42367, 37.85742], [126.4245, 37.85825], [126.42455, 37.86075], [126.42367, 37.86156], [126.42367, 37.86325], [126.4203, 37.86655], [126.42039, 37.86736], [126.41328, 37.87447], [126.41245, 37.8745], [126.41203, 37.87492], [126.412, 37.87569], [126.41161, 37.87614], [126.41072, 37.87614], [126.4083, 37.87866], [126.40739, 37.87864], [126.40283, 37.88322], [126.40281, 37.88408], [126.40366, 37.88492], [126.40366, 37.88655], [126.40533, 37.88824], [126.40536, 37.88905]]}}, {"type": "Feature", "properties": {"name": "북한 개풍 연안(한강하구 북안)", "level": 0.161, "length_km": 5.02}, "geometry": {"type": "LineString", "coordinates": [[126.40708, 37.89075], [126.40706, 37.89156], [126.40869, 37.89319], [126.40867, 37.89406], [126.40953, 37.89494], [126.40867, 37.89572], [126.40867, 37.89822], [126.40953, 37.89906], [126.40955, 37.89992], [126.40994, 37.90033], [126.41077, 37.90028], [126.41158, 37.90117], [126.41328, 37.90114], [126.41619, 37.90405], [126.41617, 37.90492], [126.417, 37.90575], [126.417, 37.9157], [126.41783, 37.91658], [126.41783, 37.91903], [126.417, 37.91986], [126.41705, 37.92072], [126.41658, 37.92111], [126.41495, 37.92114], [126.41328, 37.92284], [126.41164, 37.92278], [126.41072, 37.92364], [126.40742, 37.92361], [126.40659, 37.92444]]}}, {"type": "Feature", "properties": {"name": "북한 개풍 연안(한강하구 북안)", "level": 0.133, "length_km": 2.25}, "geometry": {"type": "LineString", "coordinates": [[126.40575, 37.917], [126.40869, 37.91403], [126.40867, 37.91241], [126.40953, 37.91158], [126.40947, 37.90987], [126.40864, 37.90906], [126.40867, 37.9082], [126.40447, 37.90408], [126.4045, 37.90322], [126.402, 37.90073], [126.40203, 37.89992]]}}, {"type": "Feature", "properties": {"name": "(126.35E, 37.88N)", "level": 0.122, "length_km": 4.27}, "geometry": {"type": "LineString", "coordinates": [[126.37153, 37.88031], [126.36828, 37.88028], [126.36739, 37.88111], [126.36658, 37.88116], [126.36578, 37.88194], [126.35242, 37.882], [126.35159, 37.88111], [126.34827, 37.88113], [126.34742, 37.88033], [126.34489, 37.88033], [126.34406, 37.8795], [126.34241, 37.87947], [126.34164, 37.87866], [126.33994, 37.87862], [126.33906, 37.87786], [126.33828, 37.87784], [126.33747, 37.87695], [126.33569, 37.87697], [126.33497, 37.87617], [126.33408, 37.87614], [126.33239, 37.8745], [126.33075, 37.87447], [126.32989, 37.87364], [126.32911, 37.87367]]}}, {"type": "Feature", "properties": {"name": "교동도", "level": 0.146, "length_km": 5.19}, "geometry": {"type": "LineString", "coordinates": [[126.27322, 37.84864], [126.27114, 37.84661], [126.27122, 37.84489], [126.27036, 37.84406], [126.27033, 37.84322], [126.26908, 37.84197], [126.26661, 37.84197], [126.26578, 37.84117], [126.26405, 37.84117], [126.26331, 37.84195], [126.26078, 37.84195], [126.25911, 37.84364], [126.25825, 37.84361], [126.25792, 37.84406], [126.25786, 37.84492], [126.25658, 37.84614], [126.25578, 37.84534], [126.25494, 37.84531], [126.25414, 37.84614], [126.25239, 37.84617], [126.24992, 37.84869], [126.24825, 37.84864], [126.24789, 37.84903], [126.24786, 37.85155], [126.24741, 37.85201], [126.24494, 37.85201], [126.24406, 37.85283], [126.24323, 37.85197], [126.23911, 37.85197], [126.23828, 37.85117], [126.23322, 37.85114], [126.23248, 37.85033]]}}, {"type": "Feature", "properties": {"name": "(126.17E, 37.84N)", "level": 0.112, "length_km": 1.24}, "geometry": {"type": "LineString", "coordinates": [[126.17989, 37.842], [126.17911, 37.84197], [126.17828, 37.84114], [126.17661, 37.84117], [126.17578, 37.84036], [126.17492, 37.84033], [126.17408, 37.84117], [126.17323, 37.84114], [126.17286, 37.84158], [126.17289, 37.84239], [126.17245, 37.84283], [126.17161, 37.84203], [126.17072, 37.842], [126.16989, 37.84117]]}}, {"type": "Feature", "properties": {"name": "강화 북안(조강 연안)", "level": 0.138, "length_km": 2.73}, "geometry": {"type": "LineString", "coordinates": [[126.44617, 37.81986], [126.4462, 37.81906], [126.44914, 37.81614], [126.44992, 37.81616], [126.45245, 37.81364], [126.45325, 37.81367], [126.45489, 37.81197], [126.45575, 37.812], [126.45658, 37.81117], [126.45747, 37.81111], [126.45789, 37.81072], [126.45783, 37.80992], [126.45822, 37.80947], [126.45908, 37.8095], [126.45989, 37.80867], [126.46078, 37.80867], [126.46322, 37.80614], [126.46408, 37.80617], [126.46575, 37.8045], [126.46661, 37.8045]]}}, {"type": "Feature", "properties": {"name": "강화 동안(염하수로)", "level": 0.168, "length_km": 3.62}, "geometry": {"type": "LineString", "coordinates": [[126.50164, 37.78614], [126.50242, 37.78616], [126.50322, 37.78533], [126.50489, 37.78531], [126.50578, 37.78453], [126.50658, 37.78447], [126.50742, 37.78364], [126.50828, 37.78367], [126.50953, 37.78242], [126.50953, 37.78069], [126.51033, 37.77986], [126.51041, 37.77825], [126.51114, 37.77742], [126.51117, 37.77655], [126.512, 37.77573], [126.51203, 37.77492], [126.51286, 37.77408], [126.51286, 37.77236], [126.51373, 37.77158], [126.51369, 37.76819], [126.51289, 37.76739], [126.51286, 37.76572], [126.51373, 37.76489], [126.51373, 37.76322], [126.51453, 37.76239], [126.5145, 37.76158], [126.51539, 37.76075], [126.51536, 37.75989]]}}, {"type": "Feature", "properties": {"name": "강화 동안(염하수로)", "level": 0.22, "length_km": 3.88}, "geometry": {"type": "LineString", "coordinates": [[126.51953, 37.75575], [126.51953, 37.75494], [126.52036, 37.75408], [126.52031, 37.75325], [126.52158, 37.75195], [126.52247, 37.75197], [126.52409, 37.75027], [126.52497, 37.75031], [126.52703, 37.74822], [126.52703, 37.74239], [126.52619, 37.74158], [126.52622, 37.73825], [126.51953, 37.73158], [126.51955, 37.73072], [126.51875, 37.72992], [126.51867, 37.72906], [126.51791, 37.72825], [126.51786, 37.72745], [126.51703, 37.72655]]}}, {"type": "Feature", "properties": {"name": "강화 동안(염하수로)", "level": 0.129, "length_km": 4.07}, "geometry": {"type": "LineString", "coordinates": [[126.517, 37.72491], [126.51617, 37.72408], [126.5162, 37.71486], [126.51783, 37.71325], [126.51789, 37.71153], [126.51869, 37.71075], [126.51878, 37.70988], [126.52411, 37.7045], [126.52497, 37.70453], [126.52619, 37.70322], [126.52622, 37.69905], [126.52539, 37.69825], [126.52533, 37.69578], [126.5245, 37.69492], [126.52456, 37.69325], [126.52372, 37.69241]]}}, {"type": "Feature", "properties": {"name": "김포 대명항·초지", "level": 0.12, "length_km": 0.89}, "geometry": {"type": "LineString", "coordinates": [[126.53083, 37.66533], [126.53289, 37.66328], [126.53286, 37.66161], [126.53369, 37.66075], [126.53161, 37.65867]]}}, {"type": "Feature", "properties": {"name": "강화 서안 외포리", "level": 0.112, "length_km": 1.01}, "geometry": {"type": "LineString", "coordinates": [[126.36739, 37.75948], [126.36828, 37.75864], [126.36953, 37.75992], [126.36825, 37.76117], [126.36739, 37.76119], [126.36658, 37.76202], [126.36578, 37.76202], [126.36489, 37.76286], [126.3633, 37.7628]]}}, {"type": "Feature", "properties": {"name": "강화 서안 외포리", "level": 0.115, "length_km": 2.04}, "geometry": {"type": "LineString", "coordinates": [[126.35867, 37.76742], [126.35703, 37.76908], [126.35703, 37.77075], [126.35614, 37.77158], [126.35617, 37.7832], [126.35533, 37.78403], [126.35542, 37.78489]]}}]}