{"type": "FeatureCollection", "features": [{"type": "Feature", "properties": {"name": "(-155.75E, 20.24N)", "level": 0.029, "length_km": 4.27}, "geometry": {"type": "LineString", "coordinates": [[-155.76631, 20.24391], [-155.76506, 20.24266], [-155.76416, 20.24261], [-155.76338, 20.24184], [-155.7625, 20.24178], [-155.76172, 20.241], [-155.76128, 20.24142], [-155.76125, 20.24222], [-155.76091, 20.24266], [-155.75833, 20.24266], [-155.75461, 20.23889], [-155.75458, 20.23642], [-155.7538, 20.23555], [-155.75383, 20.23475], [-155.75333, 20.23431], [-155.75256, 20.23433], [-155.75175, 20.23514], [-155.75085, 20.23508], [-155.74963, 20.23386], [-155.74963, 20.23306], [-155.75044, 20.23216], [-155.75041, 20.23136], [-155.75, 20.23097], [-155.74919, 20.23094], [-155.74838, 20.23175], [-155.7475, 20.23175], [-155.74669, 20.23264], [-155.74422, 20.2326], [-155.74342, 20.23178], [-155.74252, 20.23178], [-155.7413, 20.23056], [-155.74127, 20.22969]]}}, {"type": "Feature", "properties": {"name": "(-155.73E, 20.21N)", "level": 0.044, "length_km": 4.19}, "geometry": {"type": "LineString", "coordinates": [[-155.73961, 20.22806], [-155.73961, 20.22719], [-155.73753, 20.22517], [-155.73508, 20.22508], [-155.73338, 20.22339], [-155.73169, 20.22342], [-155.73128, 20.22302], [-155.73134, 20.21803], [-155.73291, 20.21633], [-155.73294, 20.21136], [-155.73213, 20.21049], [-155.73213, 20.20883], [-155.73134, 20.208], [-155.73134, 20.20719], [-155.72919, 20.20506], [-155.72749, 20.20508], [-155.72672, 20.20422], [-155.72505, 20.20425], [-155.72339, 20.20256], [-155.72255, 20.20258]]}}, {"type": "Feature", "properties": {"name": "(-155.71E, 20.19N)", "level": 0.031, "length_km": 4.38}, "geometry": {"type": "LineString", "coordinates": [[-155.72086, 20.20089], [-155.72008, 20.20089], [-155.71916, 20.20169], [-155.71837, 20.20172], [-155.71713, 20.20047], [-155.71713, 20.19794], [-155.71672, 20.19756], [-155.71252, 20.19756], [-155.71092, 20.19586], [-155.70924, 20.19589], [-155.70755, 20.1942], [-155.70586, 20.19417], [-155.70503, 20.19333], [-155.70335, 20.19336], [-155.70256, 20.19417], [-155.70088, 20.1942], [-155.70044, 20.19375], [-155.70044, 20.19208], [-155.70125, 20.19125], [-155.70134, 20.19044], [-155.70088, 20.19], [-155.69753, 20.19], [-155.69672, 20.18922], [-155.6958, 20.18916], [-155.69458, 20.18791], [-155.69458, 20.18711], [-155.69345, 20.18584], [-155.69255, 20.18584]]}}, {"type": "Feature", "properties": {"name": "(-155.65E, 20.16N)", "level": 0.024, "length_km": 3.73}, "geometry": {"type": "LineString", "coordinates": [[-155.66086, 20.17164], [-155.66005, 20.17164], [-155.65839, 20.16994], [-155.65758, 20.16997], [-155.65666, 20.16911], [-155.65509, 20.16914], [-155.65416, 20.1683], [-155.65259, 20.16827], [-155.65047, 20.16617], [-155.65047, 20.16536], [-155.64964, 20.16447], [-155.64958, 20.16367], [-155.6488, 20.1628], [-155.64877, 20.16203], [-155.64583, 20.15908], [-155.64417, 20.15906], [-155.64339, 20.15825], [-155.64256, 20.15822], [-155.64133, 20.15697], [-155.64131, 20.1553], [-155.64041, 20.15447], [-155.64044, 20.15286], [-155.63875, 20.15117], [-155.63875, 20.15036]]}}, {"type": "Feature", "properties": {"name": "(-155.62E, 20.14N)", "level": 0.024, "length_km": 3.85}, "geometry": {"type": "LineString", "coordinates": [[-155.63589, 20.14736], [-155.63336, 20.14733], [-155.63252, 20.14822], [-155.62833, 20.14822], [-155.62756, 20.14736], [-155.62508, 20.14742], [-155.62416, 20.14656], [-155.62247, 20.14653], [-155.61922, 20.14319], [-155.61839, 20.14319], [-155.61671, 20.14156], [-155.61583, 20.14153], [-155.61417, 20.13983], [-155.61008, 20.13983], [-155.60916, 20.13905], [-155.60759, 20.139], [-155.60544, 20.13692], [-155.60544, 20.13605]]}}, {"type": "Feature", "properties": {"name": "하와이섬 힐로 북부 페페에케오(Pepeekeo)", "level": 0.053, "length_km": 5.83}, "geometry": {"type": "LineString", "coordinates": [[-155.08922, 19.86153], [-155.08931, 19.8597], [-155.08997, 19.85916], [-155.09009, 19.85836], [-155.08864, 19.8578], [-155.08833, 19.85725], [-155.0883, 19.85574], [-155.08809, 19.8553], [-155.08769, 19.85503], [-155.08578, 19.85469], [-155.08441, 19.85355], [-155.08441, 19.85306], [-155.08514, 19.85217], [-155.08514, 19.85086], [-155.08423, 19.85052], [-155.08269, 19.84917], [-155.08238, 19.84825], [-155.08267, 19.84734], [-155.08502, 19.84483], [-155.08517, 19.84253], [-155.08501, 19.84203], [-155.08411, 19.84142], [-155.08389, 19.8403], [-155.08347, 19.83964], [-155.08414, 19.83888], [-155.08423, 19.83813], [-155.08347, 19.83711], [-155.08359, 19.83549], [-155.08424, 19.83464], [-155.08441, 19.83378], [-155.08505, 19.83314], [-155.08519, 19.83142], [-155.08597, 19.83031], [-155.086, 19.82831], [-155.08717, 19.82605], [-155.08778, 19.82536], [-155.0878, 19.82455], [-155.08766, 19.82417], [-155.08841, 19.82289], [-155.08858, 19.82117], [-155.08934, 19.82053], [-155.08936, 19.81978], [-155.08936, 19.81961], [-155.08925, 19.81767]]}}, {"type": "Feature", "properties": {"name": "하와이섬 힐로(Hilo)", "level": 0.234, "length_km": 5.76}, "geometry": {"type": "LineString", "coordinates": [[-155.08948, 19.81714], [-155.09009, 19.81633], [-155.09044, 19.81517], [-155.09151, 19.81425], [-155.09151, 19.81372], [-155.09105, 19.81339], [-155.0909, 19.81289], [-155.09094, 19.81133], [-155.09181, 19.81064], [-155.09338, 19.81078], [-155.09383, 19.811], [-155.0943, 19.81094], [-155.09351, 19.80964], [-155.09337, 19.80839], [-155.09294, 19.80822], [-155.09247, 19.80822], [-155.09117, 19.80686], [-155.08972, 19.80636], [-155.08871, 19.80566], [-155.08745, 19.80575], [-155.08672, 19.805], [-155.08684, 19.80003], [-155.09061, 19.79619], [-155.09091, 19.79567], [-155.09108, 19.79497], [-155.0909, 19.79161], [-155.09013, 19.79058], [-155.09013, 19.78903], [-155.08934, 19.78816], [-155.08919, 19.78731], [-155.08844, 19.7863], [-155.08841, 19.78594], [-155.0878, 19.78503], [-155.08688, 19.78419], [-155.08702, 19.78378], [-155.08736, 19.78339], [-155.08783, 19.78314], [-155.08841, 19.78319], [-155.08858, 19.78275], [-155.08769, 19.78172], [-155.08783, 19.7813], [-155.08858, 19.78061], [-155.08871, 19.77969], [-155.08917, 19.77905], [-155.08844, 19.77839]]}}, {"type": "Feature", "properties": {"name": "하와이섬 힐로(Hilo)", "level": 0.847, "length_km": 5.57}, "geometry": {"type": "LineString", "coordinates": [[-155.08847, 19.77575], [-155.08905, 19.77505], [-155.09012, 19.77411], [-155.09103, 19.77389], [-155.09091, 19.76889], [-155.09081, 19.76791], [-155.09027, 19.76753], [-155.08997, 19.76478], [-155.08942, 19.76414], [-155.08965, 19.76381], [-155.09074, 19.7627], [-155.09122, 19.76183], [-155.09081, 19.75948], [-155.09103, 19.75897], [-155.09166, 19.75816], [-155.09166, 19.75488], [-155.09151, 19.75442], [-155.09103, 19.75392], [-155.09087, 19.75241], [-155.09152, 19.75161], [-155.09166, 19.75081], [-155.09166, 19.74973], [-155.09091, 19.74892], [-155.09087, 19.74636], [-155.08995, 19.74509], [-155.09009, 19.74216], [-155.09094, 19.74108], [-155.09091, 19.73981], [-155.09, 19.73878], [-155.09, 19.73822], [-155.09105, 19.73672], [-155.09074, 19.73625], [-155.09012, 19.73564], [-155.08997, 19.73483], [-155.08925, 19.73402], [-155.08919, 19.73311], [-155.08827, 19.73192], [-155.08841, 19.73083]]}}, {"type": "Feature", "properties": {"name": "하와이섬 힐로(Hilo)", "level": 0.591, "length_km": 5.77}, "geometry": {"type": "LineString", "coordinates": [[-155.0878, 19.72997], [-155.08733, 19.72975], [-155.08688, 19.7298], [-155.08592, 19.72897], [-155.08563, 19.72811], [-155.08472, 19.72653], [-155.08299, 19.72658], [-155.08244, 19.72642], [-155.08176, 19.72575], [-155.08022, 19.72578], [-155.07883, 19.72491], [-155.07495, 19.72502], [-155.07127, 19.72874], [-155.07047, 19.72919], [-155.06944, 19.72917], [-155.0692, 19.7295], [-155.06897, 19.72997], [-155.06792, 19.73136], [-155.06725, 19.73172], [-155.06541, 19.73167], [-155.06503, 19.73145], [-155.0643, 19.73077], [-155.06413, 19.72975], [-155.06358, 19.72894], [-155.06369, 19.72755], [-155.06335, 19.72733], [-155.06297, 19.72861], [-155.06261, 19.72889], [-155.06169, 19.72914], [-155.06027, 19.73064], [-155.05948, 19.73089], [-155.05902, 19.73128], [-155.0587, 19.73228], [-155.05827, 19.73244], [-155.05672, 19.73253], [-155.05655, 19.73297], [-155.05641, 19.73436], [-155.05608, 19.73475], [-155.05566, 19.735], [-155.05498, 19.73494], [-155.05437, 19.73422], [-155.05414, 19.73375], [-155.0536, 19.73381], [-155.05255, 19.73475], [-155.05206, 19.73458], [-155.05144, 19.73399], [-155.04909, 19.73412], [-155.04839, 19.7348]]}}, {"type": "Feature", "properties": {"name": "하와이섬 힐로(Hilo)", "level": 0.095, "length_km": 5.83}, "geometry": {"type": "LineString", "coordinates": [[-155.0473, 19.73514], [-155.04514, 19.73724], [-155.04497, 19.73764], [-155.04494, 19.7392], [-155.04449, 19.73984], [-155.04402, 19.74], [-155.04263, 19.73997], [-155.04198, 19.74072], [-155.04063, 19.74097], [-155.03937, 19.74236], [-155.03889, 19.74252], [-155.0383, 19.74242], [-155.03789, 19.74214], [-155.03738, 19.74139], [-155.03767, 19.74052], [-155.03802, 19.74014], [-155.03799, 19.73984], [-155.03596, 19.73991], [-155.03535, 19.73941], [-155.03488, 19.73941], [-155.03348, 19.74075], [-155.03288, 19.74094], [-155.03178, 19.74083], [-155.03139, 19.74066], [-155.03094, 19.73991], [-155.03087, 19.73911], [-155.03223, 19.73783], [-155.03169, 19.73722], [-155.03149, 19.73642], [-155.03102, 19.73575], [-155.03105, 19.73494], [-155.03166, 19.73416], [-155.03088, 19.73253], [-155.03072, 19.73161], [-155.0304, 19.73138], [-155.03009, 19.73172], [-155.03011, 19.73277], [-155.03075, 19.73355], [-155.03072, 19.73483], [-155.03009, 19.73602], [-155.02824, 19.73756], [-155.02783, 19.73761], [-155.02686, 19.73675], [-155.02591, 19.73661], [-155.02519, 19.73608], [-155.0233, 19.73416], [-155.02234, 19.73503], [-155.02022, 19.735], [-155.01973, 19.73517], [-155.01933, 19.73569], [-155.01883, 19.73595], [-155.01805, 19.736]]}}, {"type": "Feature", "properties": {"name": "(-154.98E, 19.68N)", "level": 0.035, "length_km": 4.61}, "geometry": {"type": "LineString", "coordinates": [[-154.98259, 19.69392], [-154.98036, 19.69186], [-154.97986, 19.69055], [-154.97911, 19.6897], [-154.97905, 19.68833], [-154.97939, 19.68661], [-154.97919, 19.68591], [-154.97925, 19.6855], [-154.97995, 19.68486], [-154.98013, 19.68447], [-154.98, 19.67873], [-154.98016, 19.67797], [-154.98061, 19.67764], [-154.98091, 19.67677], [-154.98169, 19.67567], [-154.98183, 19.67487], [-154.98358, 19.67314], [-154.98344, 19.67227], [-154.98264, 19.67147], [-154.9825, 19.67061], [-154.98264, 19.66624], [-154.98244, 19.66275], [-154.9826, 19.66069], [-154.98351, 19.65977], [-154.98358, 19.6593], [-154.98105, 19.65675]]}}, {"type": "Feature", "properties": {"name": "(-154.98E, 19.64N)", "level": 0.051, "length_km": 4.53}, "geometry": {"type": "LineString", "coordinates": [[-154.98091, 19.65583], [-154.98012, 19.65469], [-154.98003, 19.65097], [-154.98013, 19.65044], [-154.98158, 19.64936], [-154.98169, 19.64836], [-154.98364, 19.64622], [-154.98351, 19.64491], [-154.98277, 19.64427], [-154.98247, 19.64314], [-154.98183, 19.64236], [-154.98169, 19.63942], [-154.98152, 19.63897], [-154.98077, 19.63902], [-154.97939, 19.63756], [-154.97894, 19.63675], [-154.97826, 19.63636], [-154.97766, 19.6358], [-154.97742, 19.63458], [-154.97661, 19.63397], [-154.97441, 19.63417], [-154.97166, 19.63155], [-154.9702, 19.63153], [-154.96973, 19.63136], [-154.96913, 19.63078], [-154.96822, 19.63055], [-154.96747, 19.62994], [-154.96622, 19.62988], [-154.96478, 19.6291], [-154.96388, 19.62889], [-154.96347, 19.62833]]}}, {"type": "Feature", "properties": {"name": "(-154.95E, 19.62N)", "level": 0.037, "length_km": 4.52}, "geometry": {"type": "LineString", "coordinates": [[-154.96178, 19.62788], [-154.95941, 19.62486], [-154.95863, 19.62463], [-154.95755, 19.62483], [-154.95738, 19.62569], [-154.95692, 19.62644], [-154.95642, 19.62666], [-154.95358, 19.62659], [-154.9523, 19.62575], [-154.95183, 19.62575], [-154.95108, 19.62633], [-154.95061, 19.62644], [-154.94939, 19.62508], [-154.94902, 19.62486], [-154.94762, 19.62483], [-154.94672, 19.62414], [-154.94667, 19.62328], [-154.94597, 19.62244], [-154.94579, 19.62138], [-154.94594, 19.61813], [-154.94675, 19.61719], [-154.94684, 19.61658], [-154.94753, 19.61569], [-154.94769, 19.61488], [-154.94858, 19.61391], [-154.94858, 19.61339], [-154.94942, 19.61224], [-154.94939, 19.61086], [-154.94858, 19.61014], [-154.94833, 19.60831], [-154.94763, 19.60744], [-154.94753, 19.60658], [-154.94611, 19.60511], [-154.94594, 19.60419]]}}, {"type": "Feature", "properties": {"name": "(-154.93E, 19.59N)", "level": 0.028, "length_km": 4.65}, "geometry": {"type": "LineString", "coordinates": [[-154.94444, 19.60255], [-154.9436, 19.60245], [-154.94191, 19.6008], [-154.94113, 19.60075], [-154.94038, 19.60011], [-154.93956, 19.59998], [-154.93852, 19.59922], [-154.93695, 19.59908], [-154.93605, 19.59844], [-154.9351, 19.59822], [-154.93449, 19.59744], [-154.93341, 19.59739], [-154.93169, 19.59544], [-154.93178, 19.595], [-154.93033, 19.59336], [-154.92892, 19.59308], [-154.92815, 19.59228], [-154.92755, 19.59247], [-154.92708, 19.59211], [-154.92625, 19.59117], [-154.92595, 19.58978], [-154.92444, 19.58853], [-154.92413, 19.58808], [-154.92416, 19.58755], [-154.92339, 19.58647], [-154.92336, 19.58561], [-154.92274, 19.58495], [-154.92244, 19.58392], [-154.92027, 19.58153], [-154.91962, 19.58131], [-154.91692, 19.58144], [-154.9157, 19.58072], [-154.91411, 19.58061], [-154.91344, 19.58006], [-154.9122, 19.57967]]}}, {"type": "Feature", "properties": {"name": "마우이 북서안 카팔루아(Kapalua)", "level": 0.036, "length_km": 5.17}, "geometry": {"type": "LineString", "coordinates": [[-156.62431, 21.02499], [-156.62369, 21.02583], [-156.6226, 21.02605], [-156.62198, 21.02672], [-156.62137, 21.02689], [-156.61813, 21.02692], [-156.61765, 21.02678], [-156.61687, 21.02608], [-156.61519, 21.02605], [-156.61411, 21.02519], [-156.61336, 21.02516], [-156.61272, 21.02586], [-156.61247, 21.02695], [-156.61224, 21.02739], [-156.61069, 21.02794], [-156.60867, 21.02991], [-156.6076, 21.03014], [-156.6076, 21.03181], [-156.60608, 21.03311], [-156.60574, 21.03355], [-156.60295, 21.03364], [-156.60092, 21.0335], [-156.60045, 21.03331], [-156.60002, 21.03272], [-156.59914, 21.03255], [-156.59879, 21.03316], [-156.59846, 21.03339], [-156.59769, 21.03362], [-156.59521, 21.03347], [-156.59467, 21.03328], [-156.5943, 21.03294], [-156.59412, 21.03197], [-156.59364, 21.03172], [-156.5929, 21.03166], [-156.5923, 21.03194], [-156.59073, 21.03342], [-156.59056, 21.03347], [-156.59012, 21.03284], [-156.58986, 21.03149], [-156.58936, 21.03103], [-156.58908, 21.03039], [-156.58908, 21.03], [-156.58983, 21.02925], [-156.58917, 21.02827]]}}, {"type": "Feature", "properties": {"name": "마우이 카하쿨로아(Kahakuloa)", "level": 0.063, "length_km": 4.97}, "geometry": {"type": "LineString", "coordinates": [[-156.58917, 21.02499], [-156.58841, 21.02516], [-156.58765, 21.02453], [-156.58705, 21.02458], [-156.58658, 21.02502], [-156.58502, 21.02347], [-156.58563, 21.02272], [-156.58533, 21.02191], [-156.58261, 21.01942], [-156.57913, 21.01925], [-156.57867, 21.01974], [-156.57716, 21.02019], [-156.57648, 21.02], [-156.57573, 21.02028], [-156.57526, 21.02075], [-156.57439, 21.02109], [-156.57341, 21.021], [-156.57292, 21.02064], [-156.57172, 21.01947], [-156.57144, 21.01903], [-156.57155, 21.01862], [-156.57028, 21.01797], [-156.5692, 21.01669], [-156.5688, 21.01578], [-156.56812, 21.01578], [-156.5675, 21.01514], [-156.56738, 21.01472], [-156.56642, 21.01527], [-156.56583, 21.01534], [-156.5645, 21.01422], [-156.56429, 21.01422], [-156.56396, 21.01622], [-156.56366, 21.01661], [-156.56322, 21.01689], [-156.56242, 21.01678], [-156.56105, 21.01605], [-156.56087, 21.0153], [-156.56078, 21.01444], [-156.55949, 21.01385], [-156.55901, 21.01273], [-156.558, 21.01258], [-156.55731, 21.01158], [-156.55684, 21.01141], [-156.55653, 21.01094]]}}, {"type": "Feature", "properties": {"name": "마우이 카하쿨로아(Kahakuloa)", "level": 0.107, "length_km": 5.05}, "geometry": {"type": "LineString", "coordinates": [[-156.55653, 21.00769], [-156.55641, 21.00722], [-156.55553, 21.00664], [-156.55414, 21.00525], [-156.55397, 21.00375], [-156.55363, 21.00294], [-156.55255, 21.002], [-156.55237, 21.00114], [-156.55161, 21.00108], [-156.55103, 21.00163], [-156.55081, 21.00244], [-156.55083, 21.00347], [-156.55052, 21.0041], [-156.54883, 21.00464], [-156.54866, 21.005], [-156.5477, 21.00514], [-156.5473, 21.00514], [-156.5471, 21.00508], [-156.54697, 21.00497], [-156.54683, 21.00475], [-156.5468, 21.0045], [-156.5468, 21.00375], [-156.54666, 21.00319], [-156.54666, 21.00267], [-156.54665, 21.00244], [-156.54666, 21.00186], [-156.54662, 21.00159], [-156.54649, 21.00136], [-156.54649, 21.00105], [-156.54636, 21.00078], [-156.54494, 21.00069], [-156.54492, 21.00085], [-156.54486, 21.00128], [-156.5448, 21.00156], [-156.5448, 21.00172], [-156.54466, 21.002], [-156.54463, 21.0022], [-156.54449, 21.00241], [-156.54445, 21.00258], [-156.54433, 21.00281], [-156.54402, 21.00303], [-156.5437, 21.00303], [-156.54337, 21.00267], [-156.54314, 21.00244], [-156.54311, 21.00222], [-156.54306, 21.00206], [-156.54297, 21.0018], [-156.54294, 21.00153], [-156.54283, 21.0013], [-156.54269, 21.0], [-156.54419, 20.99853], [-156.5425, 20.9958], [-156.54202, 20.99419], [-156.54161, 20.99411], [-156.54077, 20.99342], [-156.54063, 20.99303], [-156.54076, 20.9925], [-156.5386, 20.99025], [-156.53819, 20.99], [-156.53783, 20.99033], [-156.53799, 20.99108], [-156.53752, 20.99172], [-156.53603, 20.99208], [-156.53564, 20.99261], [-156.53511, 20.99264], [-156.53461, 20.99242]]}}, {"type": "Feature", "properties": {"name": "마우이 와이에후·와이헤에(Waiehu)", "level": 0.186, "length_km": 5.22}, "geometry": {"type": "LineString", "coordinates": [[-156.5341, 20.99178], [-156.53305, 20.99158], [-156.53227, 20.99089], [-156.53041, 20.99047], [-156.52946, 20.98958], [-156.52898, 20.98878], [-156.52901, 20.98739], [-156.52831, 20.98608], [-156.52885, 20.98528], [-156.52855, 20.98486], [-156.52808, 20.9848], [-156.5265, 20.98325], [-156.52641, 20.9818], [-156.52675, 20.98136], [-156.52763, 20.98083], [-156.52867, 20.9807], [-156.52963, 20.97961], [-156.52902, 20.97919], [-156.52811, 20.97903], [-156.52722, 20.9782], [-156.52669, 20.97739], [-156.5284, 20.9758], [-156.52994, 20.97572], [-156.53044, 20.97539], [-156.53087, 20.97491], [-156.53087, 20.9735], [-156.53009, 20.97234], [-156.52983, 20.97142], [-156.52916, 20.97066], [-156.52872, 20.9695], [-156.52824, 20.96906], [-156.52789, 20.9688], [-156.52638, 20.96753], [-156.52499, 20.96669], [-156.52411, 20.96572], [-156.52386, 20.96486], [-156.52344, 20.96455], [-156.52296, 20.96289], [-156.52235, 20.96219], [-156.52205, 20.96133], [-156.52164, 20.96086], [-156.52139, 20.95978], [-156.52078, 20.9592], [-156.52058, 20.95822]]}}, {"type": "Feature", "properties": {"name": "마우이 와이에후·와이헤에(Waiehu)", "level": 0.343, "length_km": 4.87}, "geometry": {"type": "LineString", "coordinates": [[-156.52005, 20.95753], [-156.51913, 20.95744], [-156.51822, 20.9568], [-156.51631, 20.95661], [-156.51572, 20.95592], [-156.51476, 20.95583], [-156.51247, 20.95333], [-156.5123, 20.95253], [-156.51158, 20.95172], [-156.51167, 20.94597], [-156.51128, 20.94522], [-156.5103, 20.94453], [-156.50995, 20.94389], [-156.50969, 20.94308], [-156.50894, 20.94234], [-156.50813, 20.9417], [-156.50677, 20.94022], [-156.50581, 20.94006], [-156.50461, 20.93916], [-156.50317, 20.93919], [-156.50153, 20.93758], [-156.50006, 20.93572], [-156.49759, 20.93356], [-156.49722, 20.93214], [-156.49655, 20.93136], [-156.49622, 20.93033], [-156.4959, 20.93005], [-156.49591, 20.92689], [-156.49567, 20.92641], [-156.49496, 20.92583]]}}, {"type": "Feature", "properties": {"name": "마우이 와이에후·와이헤에(Waiehu)", "level": 0.497, "length_km": 5.11}, "geometry": {"type": "LineString", "coordinates": [[-156.495, 20.92006], [-156.49472, 20.91959], [-156.49417, 20.91895], [-156.49377, 20.91803], [-156.49261, 20.91685], [-156.48911, 20.91664], [-156.48831, 20.91589], [-156.48639, 20.9157], [-156.48572, 20.91486], [-156.48567, 20.91309], [-156.48492, 20.91217], [-156.48497, 20.9085], [-156.48416, 20.90733], [-156.48402, 20.9063], [-156.48415, 20.90511], [-156.48398, 20.90469], [-156.48322, 20.90405], [-156.48311, 20.9032], [-156.4825, 20.90256], [-156.48152, 20.90225], [-156.47908, 20.90028], [-156.47856, 20.90025], [-156.47719, 20.89919], [-156.47253, 20.89919], [-156.47119, 20.90033], [-156.47147, 20.90067], [-156.47269, 20.90092], [-156.47333, 20.90155], [-156.47346, 20.90197], [-156.47336, 20.90327], [-156.47302, 20.90392], [-156.47269, 20.90419], [-156.47119, 20.90433], [-156.47011, 20.90414], [-156.46942, 20.90344], [-156.46883, 20.90339]]}}, {"type": "Feature", "properties": {"name": "마우이 북안 카훌루이·파이아(Kahului, Paia)", "level": 0.12, "length_km": 5.08}, "geometry": {"type": "LineString", "coordinates": [[-156.46628, 20.90334], [-156.46486, 20.90275], [-156.46408, 20.90336], [-156.45772, 20.90361], [-156.45358, 20.90339], [-156.45227, 20.90422], [-156.44942, 20.90414], [-156.4481, 20.90508], [-156.44608, 20.905], [-156.44423, 20.90669], [-156.44333, 20.90678], [-156.44255, 20.90747], [-156.44177, 20.9075], [-156.44113, 20.90814], [-156.43977, 20.9085], [-156.43942, 20.90903], [-156.43822, 20.90923], [-156.43727, 20.91003], [-156.436, 20.90994], [-156.43556, 20.91011], [-156.43526, 20.9105], [-156.43483, 20.91189], [-156.43356, 20.91306], [-156.43266, 20.91339], [-156.43214, 20.91469], [-156.43077, 20.91525], [-156.4305, 20.91573], [-156.42883, 20.91597], [-156.42706, 20.91594], [-156.42656, 20.91563], [-156.4263, 20.91525], [-156.42586, 20.91505], [-156.42427, 20.91492]]}}, {"type": "Feature", "properties": {"name": "(-156.22E, 20.92N)", "level": 0.021, "length_km": 3.46}, "geometry": {"type": "LineString", "coordinates": [[-156.22827, 20.92409], [-156.22919, 20.92305], [-156.23, 20.92111], [-156.22952, 20.92084], [-156.2278, 20.92067], [-156.22647, 20.92164], [-156.22411, 20.92159], [-156.22336, 20.92078], [-156.21922, 20.92072], [-156.21855, 20.9203], [-156.21761, 20.91908], [-156.21744, 20.91856], [-156.21744, 20.91575], [-156.21669, 20.91472], [-156.21655, 20.91372], [-156.2159, 20.91302], [-156.21587, 20.91252], [-156.21651, 20.91156], [-156.21573, 20.91136], [-156.21411, 20.90991], [-156.21417, 20.90911], [-156.21466, 20.90862], [-156.21469, 20.90819], [-156.21425, 20.90819], [-156.21327, 20.90744]]}}, {"type": "Feature", "properties": {"name": "(-156.13E, 20.85N)", "level": 0.025, "length_km": 5.31}, "geometry": {"type": "LineString", "coordinates": [[-156.13499, 20.86422], [-156.13411, 20.86314], [-156.133, 20.86288], [-156.13205, 20.86206], [-156.13188, 20.86161], [-156.13217, 20.86114], [-156.13208, 20.86069], [-156.13127, 20.86028], [-156.13083, 20.85958], [-156.13083, 20.855], [-156.13065, 20.85452], [-156.13005, 20.854], [-156.12988, 20.85353], [-156.12994, 20.85164], [-156.12958, 20.85089], [-156.12849, 20.85014], [-156.12833, 20.84892], [-156.12897, 20.8483], [-156.12939, 20.84717], [-156.13005, 20.84656], [-156.1297, 20.84608], [-156.12927, 20.84581], [-156.12839, 20.84566], [-156.12761, 20.84508], [-156.12741, 20.84473], [-156.1274, 20.84364], [-156.12694, 20.84328], [-156.12598, 20.84333], [-156.12419, 20.84477], [-156.12386, 20.84477], [-156.12354, 20.84439], [-156.12242, 20.8415], [-156.12169, 20.84039], [-156.12144, 20.83958], [-156.11983, 20.8382], [-156.11922, 20.8373], [-156.11894, 20.83547], [-156.11842, 20.83456], [-156.11833, 20.83247], [-156.11809, 20.83203], [-156.11739, 20.83156], [-156.11656, 20.83158], [-156.11484, 20.82994]]}}, {"type": "Feature", "properties": {"name": "오아후 카후쿠·제임스캠벨(Kahuku)", "level": 0.032, "length_km": 5.28}, "geometry": {"type": "LineString", "coordinates": [[-157.95503, 21.69914], [-157.9549, 21.69794], [-157.95413, 21.6973], [-157.95403, 21.69661], [-157.95197, 21.69414], [-157.95078, 21.69397], [-157.94667, 21.6898], [-157.94566, 21.6897], [-157.94423, 21.68789], [-157.94408, 21.68642], [-157.94347, 21.68553], [-157.94328, 21.684], [-157.94275, 21.68405], [-157.94194, 21.68375], [-157.94164, 21.68306], [-157.94167, 21.6823], [-157.94147, 21.68198], [-157.93964, 21.68117], [-157.9393, 21.68069], [-157.93916, 21.67983], [-157.93895, 21.67941], [-157.93665, 21.67828], [-157.93619, 21.67828], [-157.9353, 21.67758], [-157.93402, 21.67706], [-157.9337, 21.6767], [-157.93341, 21.67578], [-157.9333, 21.67497], [-157.93388, 21.67422], [-157.93466, 21.67411], [-157.93587, 21.67322], [-157.93666, 21.6722], [-157.93681, 21.66902], [-157.93655, 21.66789], [-157.93533, 21.6665], [-157.93433, 21.66624], [-157.93353, 21.66575], [-157.93294, 21.66575]]}}, {"type": "Feature", "properties": {"name": "오아후 카후쿠·제임스캠벨(Kahuku)", "level": 0.043, "length_km": 5.12}, "geometry": {"type": "LineString", "coordinates": [[-157.93233, 21.66544], [-157.93202, 21.66492], [-157.92955, 21.66336], [-157.92892, 21.66283], [-157.9285, 21.66203], [-157.92836, 21.65561], [-157.92752, 21.65561], [-157.92603, 21.65439], [-157.92583, 21.65395], [-157.92491, 21.65392], [-157.92349, 21.65247], [-157.92242, 21.65214], [-157.92162, 21.65144], [-157.91844, 21.65147], [-157.91731, 21.65061], [-157.91512, 21.65053], [-157.91428, 21.64972], [-157.91489, 21.64891], [-157.91606, 21.64889], [-157.91669, 21.64819], [-157.91747, 21.64803], [-157.91841, 21.64733], [-157.91933, 21.64522], [-157.91925, 21.63455], [-157.91963, 21.63428], [-157.92, 21.63358]]}}, {"type": "Feature", "properties": {"name": "(-157.91E, 21.62N)", "level": 0.038, "length_km": 5.11}, "geometry": {"type": "LineString", "coordinates": [[-157.9201, 21.63222], [-157.92072, 21.63164], [-157.92088, 21.63078], [-157.9201, 21.62975], [-157.9201, 21.62825], [-157.91966, 21.62761], [-157.91806, 21.62703], [-157.91783, 21.62669], [-157.91747, 21.62633], [-157.91638, 21.62628], [-157.91342, 21.62328], [-157.91312, 21.62219], [-157.91272, 21.62178], [-157.91251, 21.62053], [-157.91206, 21.62011], [-157.91161, 21.61823], [-157.91103, 21.61716], [-157.91078, 21.61453], [-157.91017, 21.61322], [-157.90926, 21.61211], [-157.908, 21.61114], [-157.90727, 21.6098], [-157.90511, 21.60899], [-157.90446, 21.60836], [-157.9034, 21.60811], [-157.90277, 21.6075], [-157.90155, 21.60714], [-157.89677, 21.60247], [-157.89661, 21.60125], [-157.89409, 21.59894], [-157.89409, 21.59802]]}}, {"type": "Feature", "properties": {"name": "(-157.88E, 21.58N)", "level": 0.025, "length_km": 5.2}, "geometry": {"type": "LineString", "coordinates": [[-157.89258, 21.59642], [-157.89253, 21.59555], [-157.89101, 21.59406], [-157.89072, 21.59277], [-157.89008, 21.5923], [-157.88992, 21.59133], [-157.88841, 21.58972], [-157.88831, 21.58823], [-157.8876, 21.58725], [-157.8876, 21.58644], [-157.88672, 21.58564], [-157.88667, 21.58461], [-157.88503, 21.58311], [-157.88486, 21.58224], [-157.88425, 21.58139], [-157.88417, 21.58064], [-157.88344, 21.58058], [-157.88264, 21.57994], [-157.88158, 21.57964], [-157.87941, 21.57739], [-157.87822, 21.57719], [-157.87753, 21.57639], [-157.87753, 21.57572], [-157.87592, 21.57397], [-157.87592, 21.57256], [-157.87508, 21.57144], [-157.87508, 21.55947], [-157.87572, 21.55894], [-157.87497, 21.55883], [-157.87419, 21.55808]]}}, {"type": "Feature", "properties": {"name": "(-157.84E, 21.51N)", "level": 0.037, "length_km": 3.93}, "geometry": {"type": "LineString", "coordinates": [[-157.83586, 21.52822], [-157.83502, 21.52716], [-157.83502, 21.51892], [-157.83592, 21.51811], [-157.83594, 21.51289], [-157.83533, 21.51233], [-157.83502, 21.5106], [-157.83578, 21.50986], [-157.83949, 21.50967], [-157.84016, 21.50891], [-157.84416, 21.509], [-157.8452, 21.50813], [-157.85066, 21.50819], [-157.85172, 21.50745]]}}, {"type": "Feature", "properties": {"name": "(-157.85E, 21.49N)", "level": 0.06, "length_km": 3.83}, "geometry": {"type": "LineString", "coordinates": [[-157.85175, 21.50142], [-157.85083, 21.50072], [-157.85086, 21.49911], [-157.85001, 21.49808], [-157.85001, 21.49733], [-157.84836, 21.49567], [-157.84853, 21.49153], [-157.84914, 21.49049], [-157.8494, 21.48908], [-157.8485, 21.48814], [-157.84744, 21.48819], [-157.84689, 21.48772], [-157.84508, 21.48734], [-157.8446, 21.48708], [-157.84416, 21.48622], [-157.84244, 21.485], [-157.84247, 21.48317], [-157.84152, 21.48219], [-157.84183, 21.47566], [-157.84247, 21.47481], [-157.84247, 21.47411], [-157.84322, 21.47325]]}}, {"type": "Feature", "properties": {"name": "(-157.83E, 21.46N)", "level": 0.043, "length_km": 4.46}, "geometry": {"type": "LineString", "coordinates": [[-157.84338, 21.46648], [-157.84247, 21.46555], [-157.84247, 21.46506], [-157.842, 21.46411], [-157.84151, 21.46361], [-157.84009, 21.46308], [-157.83905, 21.46233], [-157.83817, 21.46219], [-157.83656, 21.46106], [-157.83658, 21.46236], [-157.83485, 21.46431], [-157.83298, 21.46422], [-157.83269, 21.46367], [-157.83145, 21.46266], [-157.83115, 21.46211], [-157.82899, 21.46025], [-157.82764, 21.45972], [-157.8251, 21.45661], [-157.82323, 21.45592], [-157.82062, 21.45583], [-157.81906, 21.45724], [-157.81664, 21.45736], [-157.81503, 21.45567], [-157.81503, 21.4548], [-157.81442, 21.4543], [-157.81412, 21.45345], [-157.81477, 21.45216]]}}, {"type": "Feature", "properties": {"name": "오아후 카일루아·와이마날로(Kailua)", "level": 0.043, "length_km": 5.56}, "geometry": {"type": "LineString", "coordinates": [[-157.73677, 21.43336], [-157.7373, 21.43244], [-157.73755, 21.4305], [-157.73825, 21.42981], [-157.73836, 21.42889], [-157.73909, 21.42811], [-157.73849, 21.42747], [-157.74005, 21.42564], [-157.742, 21.42572], [-157.74342, 21.42389], [-157.74347, 21.4198], [-157.74405, 21.41898], [-157.74422, 21.4157], [-157.74364, 21.41505], [-157.74347, 21.41436], [-157.74095, 21.41153], [-157.74086, 21.41103], [-157.7394, 21.40928], [-157.73917, 21.40786], [-157.73836, 21.40727], [-157.73831, 21.40642], [-157.73436, 21.40253], [-157.73291, 21.40247], [-157.73236, 21.40231], [-157.73199, 21.40189], [-157.73026, 21.40164], [-157.72873, 21.40067], [-157.72749, 21.40083], [-157.726, 21.39928], [-157.72409, 21.39903], [-157.72319, 21.39844]]}}, {"type": "Feature", "properties": {"name": "오아후 카일루아·와이마날로(Kailua)", "level": 0.038, "length_km": 5.1}, "geometry": {"type": "LineString", "coordinates": [[-157.71899, 21.39816], [-157.71516, 21.39408], [-157.71481, 21.39303], [-157.71046, 21.38864], [-157.71002, 21.38728], [-157.71001, 21.38617], [-157.7094, 21.38577], [-157.70897, 21.38486], [-157.70847, 21.38411], [-157.70833, 21.38342], [-157.70708, 21.38294], [-157.70667, 21.38235], [-157.70673, 21.38064], [-157.70602, 21.37972], [-157.70586, 21.37933], [-157.70598, 21.37583], [-157.70677, 21.37444], [-157.70692, 21.37228], [-157.7085, 21.37044], [-157.70869, 21.36964], [-157.70944, 21.36886], [-157.70944, 21.36714], [-157.71019, 21.36623], [-157.71033, 21.36224], [-157.70937, 21.36156], [-157.70914, 21.35966], [-157.70847, 21.35886]]}}, {"type": "Feature", "properties": {"name": "오아후 카일루아·와이마날로(Kailua)", "level": 0.037, "length_km": 5.54}, "geometry": {"type": "LineString", "coordinates": [[-157.70847, 21.3573], [-157.70789, 21.35697], [-157.70767, 21.35638], [-157.70758, 21.35558], [-157.70697, 21.35506], [-157.70677, 21.35403], [-157.70633, 21.3537], [-157.70592, 21.35197], [-157.70522, 21.3515], [-157.7048, 21.35045], [-157.70352, 21.34908], [-157.70341, 21.34833], [-157.70264, 21.34727], [-157.70244, 21.34658], [-157.70094, 21.3448], [-157.70088, 21.34428], [-157.69978, 21.34291], [-157.69919, 21.34142], [-157.69823, 21.34047], [-157.69769, 21.33945], [-157.69641, 21.33811], [-157.69594, 21.33725], [-157.69592, 21.33639], [-157.69112, 21.33153], [-157.69006, 21.33153], [-157.68881, 21.33067], [-157.68835, 21.33072], [-157.68739, 21.32997], [-157.68494, 21.32994], [-157.68417, 21.32897], [-157.68324, 21.32899], [-157.68256, 21.32819], [-157.68062, 21.32794], [-157.68031, 21.32784], [-157.68005, 21.32733], [-157.67908, 21.32713], [-157.6783, 21.3265], [-157.67752, 21.32661], [-157.67628, 21.32619], [-157.67564, 21.32567], [-157.67397, 21.32555]]}}, {"type": "Feature", "properties": {"name": "오아후 진주만 입구", "level": 0.022, "length_km": 5.46}, "geometry": {"type": "LineString", "coordinates": [[-157.97809, 21.37558], [-157.9781, 21.37689], [-157.97888, 21.37811], [-157.97925, 21.37892], [-157.97934, 21.38], [-157.98016, 21.38031], [-157.98108, 21.3815], [-157.98244, 21.38219], [-157.98358, 21.38245], [-157.98416, 21.38272], [-157.98489, 21.38383], [-157.98589, 21.38492], [-157.98628, 21.38625], [-157.98659, 21.38625], [-157.98663, 21.38797], [-157.98697, 21.38847], [-157.98737, 21.38883], [-157.98924, 21.38919], [-157.99181, 21.38892], [-157.99316, 21.38725], [-157.99361, 21.38622], [-157.99347, 21.38572], [-157.992, 21.38403], [-157.99161, 21.38242], [-157.99097, 21.38139], [-157.99103, 21.37864], [-157.9908, 21.37805], [-157.99019, 21.37747], [-157.99019, 21.37686], [-157.98845, 21.37425], [-157.98833, 21.37328], [-157.98772, 21.37231], [-157.98755, 21.37138], [-157.98615, 21.36983], [-157.98492, 21.36914], [-157.98135, 21.36917], [-157.9805, 21.3683]]}}, {"type": "Feature", "properties": {"name": "오아후 진주만 입구", "level": 0.022, "length_km": 5.22}, "geometry": {"type": "LineString", "coordinates": [[-157.98094, 21.34892], [-157.98091, 21.34988], [-157.98169, 21.35086], [-157.98244, 21.3515], [-157.98311, 21.3515], [-157.98392, 21.35191], [-157.98399, 21.35214], [-157.98508, 21.35239], [-157.98599, 21.35313], [-157.98659, 21.35336], [-157.98892, 21.35323], [-157.9894, 21.35327], [-157.99261, 21.3565], [-157.99269, 21.35736], [-157.99342, 21.35747], [-157.99374, 21.35767], [-157.99419, 21.35853], [-157.9937, 21.35973], [-157.9911, 21.36017], [-157.99083, 21.36178], [-157.99001, 21.36325], [-157.99109, 21.36339], [-157.99249, 21.36161], [-157.99374, 21.36161], [-157.99435, 21.36075], [-157.99689, 21.36072], [-157.99763, 21.3598], [-157.99997, 21.35909], [-158.0, 21.35912], [-158.00336, 21.36097], [-158.00333, 21.36511], [-158.00539, 21.36586], [-158.00592, 21.36586], [-158.0065, 21.36627]]}}, {"type": "Feature", "properties": {"name": "오아후 진주만 입구", "level": 0.024, "length_km": 5.16}, "geometry": {"type": "LineString", "coordinates": [[-158.00674, 21.36703], [-158.00688, 21.37], [-158.00566, 21.37136], [-158.00566, 21.37216], [-158.00644, 21.37334], [-158.00803, 21.37366], [-158.00864, 21.37364], [-158.0092, 21.37334], [-158.00981, 21.37277], [-158.01059, 21.3726], [-158.0112, 21.37277], [-158.01152, 21.37314], [-158.01152, 21.374], [-158.01247, 21.37497], [-158.01236, 21.37589], [-158.01186, 21.37659], [-158.01189, 21.37703], [-158.01245, 21.37761], [-158.01447, 21.37786], [-158.01511, 21.3783], [-158.01588, 21.37927], [-158.01662, 21.3791], [-158.01683, 21.37839], [-158.0191, 21.37592], [-158.02008, 21.37595], [-158.02097, 21.37492], [-158.02086, 21.37094], [-158.02066, 21.37094], [-158.01825, 21.36842], [-158.01825, 21.36789], [-158.0191, 21.36674], [-158.0218, 21.36664], [-158.02272, 21.36561], [-158.02238, 21.36166], [-158.02174, 21.36097]]}}, {"type": "Feature", "properties": {"name": "오아후 진주만 입구", "level": 0.023, "length_km": 5.26}, "geometry": {"type": "LineString", "coordinates": [[-158.02066, 21.36078], [-158.02005, 21.36011], [-158.01895, 21.36019], [-158.01833, 21.36089], [-158.01558, 21.36086], [-158.01416, 21.35931], [-158.01308, 21.35914], [-158.01236, 21.3585], [-158.00972, 21.35855], [-158.00922, 21.35912], [-158.00772, 21.35789], [-158.00766, 21.35767], [-158.00562, 21.3575], [-158.005, 21.35686], [-158.00392, 21.35661], [-158.00006, 21.35587], [-158.0, 21.35587], [-157.99644, 21.35648], [-157.99422, 21.35405], [-157.99422, 21.35303], [-157.99347, 21.35239], [-157.99062, 21.35231], [-157.99005, 21.3515], [-157.98506, 21.35142], [-157.98338, 21.34986], [-157.98322, 21.349], [-157.98155, 21.34708], [-157.98167, 21.34658], [-157.98105, 21.34583], [-157.97986, 21.34547]]}}, {"type": "Feature", "properties": {"name": "오아후 진주만 입구", "level": 0.022, "length_km": 5.91}, "geometry": {"type": "LineString", "coordinates": [[-157.98341, 21.31653], [-157.98453, 21.31728], [-157.98663, 21.31734], [-157.98708, 21.31722], [-157.98747, 21.31667], [-157.98958, 21.31656], [-157.98958, 21.31616], [-157.98984, 21.3158], [-157.99066, 21.31564], [-157.99205, 21.31497], [-157.99869, 21.31489], [-158.0, 21.31392], [-158.0, 21.31392], [-158.00592, 21.3127], [-158.00764, 21.3127], [-158.00861, 21.31194], [-158.01181, 21.31181], [-158.0126, 21.311], [-158.01414, 21.31094], [-158.01506, 21.31027], [-158.01598, 21.31023], [-158.01678, 21.30936], [-158.01852, 21.30925], [-158.01913, 21.30858], [-158.02095, 21.30841], [-158.02177, 21.30778], [-158.03087, 21.30761], [-158.0323, 21.30614], [-158.03433, 21.30597], [-158.03464, 21.30556], [-158.03525, 21.30522]]}}, {"type": "Feature", "properties": {"name": "(-159.40E, 22.23N)", "level": 0.03, "length_km": 5.4}, "geometry": {"type": "LineString", "coordinates": [[-159.41589, 22.2262], [-159.41502, 22.22705], [-159.41422, 22.2262], [-159.4133, 22.22705], [-159.40919, 22.22708], [-159.408, 22.22827], [-159.408, 22.22914], [-159.4071, 22.23], [-159.4071, 22.23167], [-159.40462, 22.23414], [-159.40462, 22.235], [-159.40631, 22.23666], [-159.40631, 22.23747], [-159.40587, 22.23792], [-159.40416, 22.23786], [-159.4034, 22.23875], [-159.40294, 22.23828], [-159.40294, 22.235], [-159.4025, 22.23456], [-159.40169, 22.23456], [-159.39877, 22.23164], [-159.39877, 22.22997], [-159.39799, 22.22917], [-159.39799, 22.2283], [-159.39673, 22.22705], [-159.39253, 22.22705], [-159.39085, 22.22539], [-159.3875, 22.22542], [-159.38669, 22.22622]]}}, {"type": "Feature", "properties": {"name": "(-159.37E, 22.22N)", "level": 0.035, "length_km": 5.36}, "geometry": {"type": "LineString", "coordinates": [[-159.38583, 22.22622], [-159.38503, 22.22708], [-159.38374, 22.22583], [-159.38374, 22.2233], [-159.3842, 22.22289], [-159.38583, 22.22289], [-159.38625, 22.2225], [-159.38625, 22.22083], [-159.38503, 22.21956], [-159.38422, 22.21956], [-159.38333, 22.21869], [-159.3725, 22.21872], [-159.37003, 22.21628], [-159.36919, 22.21628], [-159.36842, 22.21542], [-159.36583, 22.21542], [-159.36502, 22.21455], [-159.36086, 22.21458], [-159.36008, 22.21372], [-159.35669, 22.21706], [-159.3559, 22.21706], [-159.355, 22.21791], [-159.35339, 22.21791], [-159.35252, 22.21706], [-159.35092, 22.21706]]}}, {"type": "Feature", "properties": {"name": "(-159.33E, 22.20N)", "level": 0.035, "length_km": 4.9}, "geometry": {"type": "LineString", "coordinates": [[-159.3488, 22.215], [-159.3488, 22.21414], [-159.34833, 22.21375], [-159.34755, 22.21375], [-159.34666, 22.21289], [-159.34506, 22.21289], [-159.34413, 22.21208], [-159.34338, 22.21208], [-159.3358, 22.20453], [-159.33424, 22.20453], [-159.33377, 22.20414], [-159.33377, 22.20333], [-159.33292, 22.20247], [-159.33292, 22.20081], [-159.33455, 22.19914], [-159.33455, 22.19661], [-159.33423, 22.19622], [-159.33003, 22.19622], [-159.32925, 22.19708], [-159.32835, 22.19708], [-159.32666, 22.19542], [-159.32588, 22.19542], [-159.32544, 22.19497], [-159.32544, 22.19417], [-159.32419, 22.19292], [-159.32339, 22.19292], [-159.3217, 22.19125], [-159.3208, 22.19125]]}}, {"type": "Feature", "properties": {"name": "(-159.31E, 22.17N)", "level": 0.041, "length_km": 5.39}, "geometry": {"type": "LineString", "coordinates": [[-159.31924, 22.18958], [-159.31833, 22.18958], [-159.31755, 22.18872], [-159.31673, 22.18872], [-159.31544, 22.18747], [-159.31544, 22.18666], [-159.31461, 22.18581], [-159.31461, 22.18494], [-159.31291, 22.18336], [-159.31291, 22.1825], [-159.31213, 22.18164], [-159.31213, 22.17997], [-159.31288, 22.17917], [-159.31288, 22.17836], [-159.31381, 22.1775], [-159.31378, 22.17497], [-159.31212, 22.17331], [-159.31212, 22.1725], [-159.31131, 22.17164], [-159.31131, 22.16911], [-159.31041, 22.16833], [-159.31041, 22.165], [-159.30965, 22.16414], [-159.30965, 22.16333], [-159.30794, 22.16167], [-159.30794, 22.16], [-159.30716, 22.15913], [-159.30714, 22.15417], [-159.30794, 22.15331], [-159.30794, 22.15164], [-159.30672, 22.15036], [-159.3058, 22.15039], [-159.30502, 22.14958]]}}, {"type": "Feature", "properties": {"name": "카우아이 카파아(Kapaa)", "level": 0.028, "length_km": 4.93}, "geometry": {"type": "LineString", "coordinates": [[-159.30005, 22.14958], [-159.29916, 22.15039], [-159.2975, 22.15039], [-159.29631, 22.14914], [-159.29631, 22.14581], [-159.29541, 22.145], [-159.29541, 22.14247], [-159.29463, 22.14161], [-159.29463, 22.13914], [-159.29544, 22.13828], [-159.29544, 22.13583], [-159.29633, 22.13503], [-159.29633, 22.13417], [-159.29544, 22.1333], [-159.29544, 22.1325], [-159.29463, 22.13164], [-159.29463, 22.12917], [-159.29375, 22.1283], [-159.29463, 22.1275], [-159.29463, 22.12663], [-159.29541, 22.12578], [-159.29463, 22.12497], [-159.29588, 22.12372], [-159.29666, 22.12372], [-159.2971, 22.12331], [-159.2971, 22.11833], [-159.29791, 22.11747], [-159.29791, 22.115], [-159.29709, 22.1142]]}}, {"type": "Feature", "properties": {"name": "카우아이 카파아(Kapaa)", "level": 0.033, "length_km": 5.7}, "geometry": {"type": "LineString", "coordinates": [[-159.31798, 22.06831], [-159.31877, 22.0675], [-159.31877, 22.06586], [-159.31961, 22.06497], [-159.31961, 22.06413], [-159.32047, 22.06333], [-159.32047, 22.06253], [-159.32124, 22.06166], [-159.32124, 22.06081], [-159.32294, 22.05914], [-159.32297, 22.05833], [-159.32419, 22.05705], [-159.325, 22.05705], [-159.32666, 22.05539], [-159.32835, 22.05539], [-159.33003, 22.05373], [-159.33083, 22.05373], [-159.33173, 22.05292], [-159.33253, 22.05373], [-159.33624, 22.04997], [-159.33624, 22.04831], [-159.33708, 22.0475], [-159.33708, 22.04497], [-159.33624, 22.04414], [-159.33624, 22.04], [-159.33708, 22.03914], [-159.33708, 22.0358], [-159.33797, 22.035], [-159.33797, 22.03328], [-159.33878, 22.03247], [-159.33878, 22.03], [-159.33966, 22.02914]]}}, {"type": "Feature", "properties": {"name": "카우아이 리후에(Lihue)", "level": 0.078, "length_km": 5.15}, "geometry": {"type": "LineString", "coordinates": [[-159.33966, 22.0225], [-159.33875, 22.0217], [-159.33875, 22.01997], [-159.33965, 22.01917], [-159.33875, 22.01831], [-159.33875, 22.01497], [-159.33797, 22.01417], [-159.33797, 22.00999], [-159.33708, 22.00914], [-159.33705, 22.00747], [-159.33377, 22.00414], [-159.33377, 22.00333], [-159.33545, 22.00161], [-159.33539, 22.00081], [-159.33594, 22.0], [-159.33594, 21.99847], [-159.33701, 21.99767], [-159.3383, 21.99702], [-159.33861, 21.99669], [-159.33983, 21.99583], [-159.34033, 21.99572], [-159.34155, 21.99644], [-159.34259, 21.9965], [-159.34306, 21.99633], [-159.3432, 21.99547], [-159.34291, 21.99461], [-159.34229, 21.99406], [-159.34183, 21.99386], [-159.34134, 21.994], [-159.34073, 21.99467], [-159.34013, 21.99461], [-159.33949, 21.99406], [-159.33908, 21.99389], [-159.3381, 21.99406], [-159.33656, 21.99394], [-159.3358, 21.99452], [-159.33536, 21.99577]]}}, {"type": "Feature", "properties": {"name": "카우아이 리후에(Lihue)", "level": 0.105, "length_km": 5.63}, "geometry": {"type": "LineString", "coordinates": [[-159.3347, 21.99648], [-159.33423, 21.99658], [-159.33258, 21.99619], [-159.33224, 21.99583], [-159.33197, 21.99442], [-159.33122, 21.99319], [-159.3313, 21.99233], [-159.33328, 21.99028], [-159.33397, 21.98969], [-159.33485, 21.98941], [-159.33501, 21.98683], [-159.33467, 21.98367], [-159.33475, 21.97633], [-159.33406, 21.9758], [-159.33383, 21.97498], [-159.33316, 21.97375], [-159.33299, 21.97186], [-159.33298, 21.96783], [-159.3322, 21.96706], [-159.33223, 21.96513], [-159.33206, 21.96447], [-159.33147, 21.96372], [-159.33133, 21.9633], [-159.33223, 21.96222], [-159.33244, 21.96044], [-159.3364, 21.95653], [-159.33736, 21.95636], [-159.33858, 21.9555], [-159.33955, 21.9555], [-159.34044, 21.95599]]}}, {"type": "Feature", "properties": {"name": "카우아이 리후에(Lihue)", "level": 0.164, "length_km": 5.62}, "geometry": {"type": "LineString", "coordinates": [[-159.34077, 21.95728], [-159.34142, 21.95847], [-159.34142, 21.95889], [-159.34196, 21.95906], [-159.3443, 21.95911], [-159.34497, 21.95886], [-159.34569, 21.95825], [-159.3465, 21.95795], [-159.34737, 21.95724], [-159.34822, 21.95714], [-159.34833, 21.95708], [-159.3494, 21.95708], [-159.35019, 21.95761], [-159.35123, 21.95863], [-159.35141, 21.96053], [-159.35194, 21.96133], [-159.35248, 21.96161], [-159.35295, 21.96161], [-159.3531, 21.9612], [-159.35309, 21.95897], [-159.35374, 21.95828], [-159.35394, 21.95677], [-159.35435, 21.95597], [-159.35478, 21.95564], [-159.35947, 21.95558], [-159.3598, 21.95517], [-159.35976, 21.95392], [-159.35989, 21.95311], [-159.36037, 21.95236], [-159.36139, 21.95155], [-159.36192, 21.95139], [-159.36272, 21.95178], [-159.36317, 21.9515], [-159.36333, 21.95069], [-159.36349, 21.95027], [-159.36424, 21.94958], [-159.36549, 21.94897], [-159.3663, 21.94833], [-159.36731, 21.94797], [-159.36903, 21.94905], [-159.37, 21.94936], [-159.37067, 21.94992], [-159.37108, 21.94986], [-159.37219, 21.95055], [-159.37416, 21.95094], [-159.37459, 21.95131], [-159.37508, 21.95128], [-159.37619, 21.95047], [-159.37679, 21.94922], [-159.37639, 21.94894]]}}, {"type": "Feature", "properties": {"name": "카우아이 리후에(Lihue)", "level": 0.152, "length_km": 5.29}, "geometry": {"type": "LineString", "coordinates": [[-159.3703, 21.94894], [-159.36935, 21.94861], [-159.36858, 21.94797], [-159.36812, 21.94797], [-159.36739, 21.94747], [-159.36688, 21.94742], [-159.36609, 21.94803], [-159.36555, 21.94806], [-159.36427, 21.94891], [-159.36375, 21.94903], [-159.36284, 21.94978], [-159.36224, 21.94978], [-159.36133, 21.95058], [-159.35712, 21.95064], [-159.35608, 21.9515], [-159.35158, 21.95145], [-159.35094, 21.95116], [-159.3508, 21.95116], [-159.34985, 21.95008], [-159.34967, 21.94969], [-159.34961, 21.94722], [-159.34911, 21.94653], [-159.34906, 21.94608], [-159.34961, 21.94556], [-159.35109, 21.94519], [-159.35147, 21.94469], [-159.35147, 21.94342], [-159.3511, 21.94308], [-159.35063, 21.94292], [-159.34892, 21.94158], [-159.34816, 21.9405], [-159.34798, 21.94006], [-159.34816, 21.93883], [-159.34886, 21.93817], [-159.34984, 21.93808], [-159.35052, 21.93742], [-159.3553, 21.93723], [-159.35573, 21.93689], [-159.35634, 21.93584], [-159.35634, 21.93452], [-159.35703, 21.9333]]}}, {"type": "Feature", "properties": {"name": "카우아이 리후에(Lihue)", "level": 0.08, "length_km": 5.75}, "geometry": {"type": "LineString", "coordinates": [[-159.35808, 21.93303], [-159.35886, 21.93244], [-159.35947, 21.93228], [-159.36086, 21.93244], [-159.36378, 21.93239], [-159.36472, 21.93164], [-159.366, 21.93153], [-159.36681, 21.93105], [-159.36803, 21.92986], [-159.36813, 21.929], [-159.36873, 21.92814], [-159.37029, 21.92686], [-159.37137, 21.92561], [-159.37361, 21.92558], [-159.37415, 21.92542], [-159.37445, 21.92503], [-159.37544, 21.92416], [-159.37694, 21.92403], [-159.37741, 21.92386], [-159.37819, 21.92311], [-159.37956, 21.92316], [-159.38078, 21.92225], [-159.38116, 21.9223], [-159.3817, 21.92213], [-159.38239, 21.92145], [-159.38312, 21.92139], [-159.383, 21.91908], [-159.3835, 21.91839], [-159.3856, 21.91644], [-159.38573, 21.91563], [-159.38591, 21.91516], [-159.38716, 21.91392], [-159.38889, 21.91375], [-159.38963, 21.91322], [-159.39053, 21.91306], [-159.3907, 21.91275], [-159.39061, 21.91156], [-159.39145, 21.91031], [-159.39145, 21.90903], [-159.39058, 21.90794], [-159.38884, 21.90633], [-159.38869, 21.90514], [-159.38928, 21.90428], [-159.38997, 21.90381]]}}, {"type": "Feature", "properties": {"name": "카우아이 포이푸(Poipu)", "level": 0.037, "length_km": 5.75}, "geometry": {"type": "LineString", "coordinates": [[-159.39101, 21.90369], [-159.39169, 21.903], [-159.39288, 21.90305], [-159.39336, 21.90294], [-159.39365, 21.90253], [-159.39403, 21.90225], [-159.39555, 21.90225], [-159.39661, 21.90305], [-159.39986, 21.90311], [-159.40233, 21.90058], [-159.40311, 21.90063], [-159.40463, 21.89941], [-159.40463, 21.89903], [-159.40564, 21.89792], [-159.40575, 21.89711], [-159.40633, 21.89642], [-159.40645, 21.89478], [-159.40805, 21.89322], [-159.40916, 21.89303], [-159.40939, 21.89303], [-159.41022, 21.89258], [-159.41072, 21.89253], [-159.41156, 21.89308], [-159.41208, 21.89314], [-159.41235, 21.89147], [-159.41389, 21.88975], [-159.41428, 21.8898], [-159.41594, 21.88889], [-159.41716, 21.88895], [-159.41797, 21.88836], [-159.41925, 21.88777], [-159.41963, 21.8875], [-159.4198, 21.88458], [-159.42056, 21.88389], [-159.4207, 21.88309], [-159.42131, 21.88239], [-159.4218, 21.88222], [-159.42273, 21.88233], [-159.42366, 21.88233], [-159.42474, 21.88153], [-159.42789, 21.88139], [-159.43015, 21.8815], [-159.43097, 21.88127]]}}, {"type": "Feature", "properties": {"name": "몰로카이 칼라우파파(Kalaupapa)", "level": 0.023, "length_km": 3.89}, "geometry": {"type": "LineString", "coordinates": [[-156.95525, 21.20047], [-156.95325, 21.1981], [-156.95338, 21.19714], [-156.9532, 21.19639], [-156.952, 21.19522], [-156.95172, 21.19469], [-156.95183, 21.19328], [-156.95166, 21.19234], [-156.95016, 21.19067], [-156.95026, 21.18845], [-156.94925, 21.18711], [-156.94936, 21.18275], [-156.94902, 21.1825], [-156.94749, 21.18244], [-156.94606, 21.18086], [-156.94566, 21.17972], [-156.94502, 21.17892], [-156.94502, 21.17741], [-156.94498, 21.17706], [-156.94455, 21.17677], [-156.9436, 21.17677], [-156.94286, 21.17606], [-156.94208, 21.17589], [-156.94072, 21.17597], [-156.94003, 21.17517], [-156.93913, 21.175], [-156.93834, 21.17436]]}}, {"type": "Feature", "properties": {"name": "니이하우(Niihau)", "level": 0.027, "length_km": 3.54}, "geometry": {"type": "LineString", "coordinates": [[-160.07594, 21.95133], [-160.07587, 21.95081], [-160.07686, 21.94978], [-160.07695, 21.94942], [-160.07683, 21.94822], [-160.07744, 21.94759], [-160.07764, 21.94672], [-160.07761, 21.94553], [-160.07835, 21.945], [-160.07851, 21.9445], [-160.07835, 21.94173], [-160.07858, 21.94122], [-160.07919, 21.94058], [-160.07928, 21.93833], [-160.07991, 21.93753], [-160.08006, 21.93591], [-160.08086, 21.93483], [-160.08099, 21.93259], [-160.08153, 21.93192], [-160.08173, 21.93111], [-160.0816, 21.9268], [-160.08238, 21.92599], [-160.08261, 21.92159]]}}, {"type": "Feature", "properties": {"name": "니이하우(Niihau)", "level": 0.027, "length_km": 3.46}, "geometry": {"type": "LineString", "coordinates": [[-160.0816, 21.92067], [-160.08147, 21.91895], [-160.08086, 21.91775], [-160.08089, 21.91486], [-160.08008, 21.91389], [-160.07903, 21.91167], [-160.07841, 21.91086], [-160.07828, 21.91], [-160.07777, 21.90928], [-160.07678, 21.90842], [-160.07664, 21.90761], [-160.07619, 21.90681], [-160.07478, 21.90567], [-160.07402, 21.90459], [-160.07405, 21.90247], [-160.07341, 21.90161], [-160.07361, 21.90122], [-160.07402, 21.9008], [-160.07419, 21.90033], [-160.07326, 21.89886], [-160.07327, 21.89633], [-160.07372, 21.89542], [-160.07588, 21.89339]]}}]}